QIANFAN-60              
1 62790U 25016F   25228.81516150  .00000093  00000+0  12575-3 0  9998
2 62790  88.9807 115.2785 0014811 332.8702  27.1673 13.50960257 31306
QIANFAN-61              
1 62791U 25016G   25228.75362096  .00000097  00000+0  13257-3 0  9992
2 62791  88.9875 115.3625 0014212 331.9886  28.0498 13.50966065 31313
QIANFAN-62              
1 62792U 25016H   25228.75759608  .00000101  00000+0  13805-3 0  9997
2 62792  88.9821 115.2943 0015611 331.6252  28.4047 13.50960005 31306
QIANFAN-63              
1 62793U 25016J   25228.76998379  .00000079  00000+0  10454-3 0  9990
2 62793  88.9827 115.2338 0015575 336.3574  23.6860 13.50957027 31343
QIANFAN-64              
1 62794U 25016K   25228.76169381  .00000091  00000+0  12324-3 0  9996
2 62794  88.9814 115.2306 0013215 331.0434  28.9983 13.50959536 31331
QIANFAN-65              
1 62795U 25016L   25228.74532935  .00000097  00000+0  13140-3 0  9997
2 62795  88.9810 115.2595 0013452 332.8540  27.1906 13.50963534 31315
QIANFAN-66              
1 62796U 25016M   25228.77403602  .00000082  00000+0  10910-3 0  9995
2 62796  88.9830 115.2035 0014418 327.5890  32.4374 13.50958593 31361
QIANFAN-67              
1 62797U 25016N   25228.77819314  .00000084  00000+0  11219-3 0  9992
2 62797  88.9820 115.2402 0014634 334.6791  25.3642 13.50967295 31333
QIANFAN-68              
1 62798U 25016P   25228.78227063  .00000087  00000+0  11676-3 0  9998
2 62798  88.9823 115.2837 0015192 332.5765  27.4583 13.50964705 31315
QIANFAN-69              
1 62799U 25016Q   25228.78637249  .00000092  00000+0  12347-3 0  9992
2 62799  88.9802 115.1752 0015394 333.5053  26.5310 13.50960309 31351
QIANFAN-70              
1 62800U 25016R   25228.80287243  .00000086  00000+0  11555-3 0  9996
2 62800  88.9824 115.2869 0014645 323.7365  36.2792 13.50964159 31318
QIANFAN-71              
1 62801U 25016S   25228.79884026  .00000093  00000+0  12592-3 0  9997
2 62801  88.9817 115.2741 0015437 337.1082  22.9379 13.50963952 31318
QIANFAN-72              
1 62802U 25016T   25228.79461323  .00000095  00000+0  12942-3 0  9990
2 62802  88.9807 115.2945 0019056 342.2901  17.7584 13.50959368 31307
QIANFAN-73              
1 63159U 25046A   25228.76827860  .00000152  00000+0  21719-3 0  9994
2 63159  88.9864 332.1872 0017013 105.4687 254.8345 13.50962639 31489
QIANFAN-74              
1 63160U 25046B   25228.75180218  .00000154  00000+0  22031-3 0  9994
2 63160  88.9863 332.0774 0001983 107.4928 252.6440 13.50967652 31548
QIANFAN-75              
1 63161U 25046C   25228.73952910  .00000147  00000+0  20903-3 0  9997
2 63161  88.9865 332.3105 0018170 108.3940 251.9189 13.50963875 31413
QIANFAN-76              
1 63162U 25046D   25228.80934465  .00000156  00000+0  22329-3 0  9995
2 63162  88.9864 332.2845 0015739 108.8215 251.4645 13.50960413 31430
QIANFAN-77              
1 63163U 25046E   25228.78102714  .00000359  00000+0  25217-3 0  9991
2 63163  88.9861 331.2620 0016902  91.2170 269.0943 13.96016754 31993
QIANFAN-78              
1 63164U 25046F   25228.77653029  .00000156  00000+0  22284-3 0  9997
2 63164  88.9863 332.1532 0017109 110.9666 249.3318 13.50963606 31508
QIANFAN-79              
1 63165U 25046G   25228.80522603  .00000162  00000+0  23139-3 0  9992
2 63165  88.9867 332.2531 0016795 109.3899 250.9069 13.50965811 31458
QIANFAN-80              
1 63166U 25046H   25228.74773218  .00000150  00000+0  21340-3 0  9995
2 63166  88.9864 331.9692 0015776 113.3318 246.9494 13.50965825 31608
QIANFAN-81              
1 63167U 25046J   25228.80119714  .00000161  00000+0  23032-3 0  9990
2 63167  88.9864 332.0322 0016764 102.9645 257.3379 13.50964553 31566
QIANFAN-82              
1 63168U 25046K   25228.75993892  .00000160  00000+0  22942-3 0  9990
2 63168  88.9864 332.0799 0014923 110.0832 250.1926 13.50961446 31543
QIANFAN-83              
1 63169U 25046L   25228.78311754  .00000184  00000+0  22235-3 0  9996
2 63169  88.9864 332.0849 0016208 102.6228 257.6743 13.61936581 31547
QIANFAN-84              
1 63170U 25046M   25228.78873401  .00000159  00000+0  22770-3 0  9996
2 63170  88.9864 332.2100 0017885 106.7341 253.5775 13.50968714 31477
QIANFAN-85              
1 63171U 25046N   25228.78473762  .00000150  00000+0  21309-3 0  9991
2 63171  88.9863 332.0826 0015265 109.0749 251.2056 13.50962460 31545
QIANFAN-86              
1 63172U 25046P   25228.79296083  .00000160  00000+0  22846-3 0  9990
2 63172  88.9866 331.9412 0013154 112.7665 247.4878 13.50962902 31620
QIANFAN-87              
1 63173U 25046Q   25228.76407715  .00000163  00000+0  23394-3 0  9996
2 63173  88.9862 332.0602 0013860 108.4484 251.8175 13.50959515 31552
QIANFAN-88              
1 63174U 25046R   25228.78066508  .00000142  00000+0  20180-3 0  9997
2 63174  88.9864 332.0102 0014233 115.3139 244.9489 13.50966919 31589
QIANFAN-89              
1 63175U 25046S   25228.74350884  .00000146  00000+0  20742-3 0  9995
2 63175  88.9864 332.2030 0018555 107.2871 253.0312 13.50967718 31478
QIANFAN-90              
1 63176U 25046T   25228.77230795  .00000131  00000+0  18478-3 0  9994
2 63176  88.9865 332.1722 0015490 105.7155 254.5706 13.50966437 31492
